{
  "type": "FeatureCollection",
  "features": [
    {
      "type": "Feature",
      "properties": {
        "norad_id": 43719,
        "name": "HYSIS",
        "group": "resource",
        "lat": 13.33926691564109,
        "lon": -126.9527852567547,
        "alt_km": 635.0548225964267,
        "timestamp": "2025-12-14T03:55:52.451007+00:00",
        "meta_object_name": "HYSIS",
        "meta_object_id": "2018-096A",
        "meta_epoch": "2025-12-13T07:41:31.676928",
        "meta_mean_motion": 14.78649347,
        "meta_eccentricity": 0.00012913,
        "meta_inclination": 98.0093,
        "meta_ra_of_asc_node": 50.2949,
        "meta_arg_of_pericenter": 56.0946,
        "meta_mean_anomaly": 304.0387,
        "meta_ephemeris_type": 0,
        "meta_classification_type": "U",
        "meta_norad_cat_id": 43719,
        "meta_element_set_no": 999,
        "meta_rev_at_epoch": 37995,
        "meta_bstar": 0.00035699059,
        "meta_mean_motion_dot": 2.564e-05,
        "meta_mean_motion_ddot": 0,
        "tle_line1": "1 43719U 18096A   25347.32050552  .00002564  00000+0  35699-3 0  9992",
        "tle_line2": "2 43719  98.0093  50.2949 0001291  56.0946 304.0387 14.78649347379958"
      },
      "geometry": {
        "type": "Point",
        "coordinates": [
          -126.9527852567547,
          13.33926691564109
        ]
      }
    },
    {
      "type": "Feature",
      "properties": {
        "norad_id": 43783,
        "name": "KAZSTSAT",
        "group": "resource",
        "lat": 31.094055031154465,
        "lon": -152.1818084449568,
        "alt_km": 571.3261864226879,
        "timestamp": "2025-12-14T03:55:52.451023+00:00",
        "meta_object_name": "KAZSTSAT",
        "meta_object_id": "2018-099AB",
        "meta_epoch": "2025-12-13T01:38:37.746816",
        "meta_mean_motion": 14.99354527,
        "meta_eccentricity": 0.00059071,
        "meta_inclination": 97.456,
        "meta_ra_of_asc_node": 22.2397,
        "meta_arg_of_pericenter": 328.8616,
        "meta_mean_anomaly": 31.2257,
        "meta_ephemeris_type": 0,
        "meta_classification_type": "U",
        "meta_norad_cat_id": 43783,
        "meta_element_set_no": 999,
        "meta_rev_at_epoch": 38341,
        "meta_bstar": 0.00017301376,
        "meta_mean_motion_dot": 2.06e-05,
        "meta_mean_motion_ddot": 0,
        "tle_line1": "1 43783U 18099AB  25347.06849244  .00002060  00000+0  17301-3 0  9992",
        "tle_line2": "2 43783  97.4560  22.2397 0005907 328.8616  31.2257 14.99354527383416"
      },
      "geometry": {
        "type": "Point",
        "coordinates": [
          -152.1818084449568,
          31.094055031154465
        ]
      }
    },
    {
      "type": "Feature",
      "properties": {
        "norad_id": 43831,
        "name": "SAUDISAT 5A",
        "group": "resource",
        "lat": -24.109524085870095,
        "lon": 51.6324102208417,
        "alt_km": 495.1461824240523,
        "timestamp": "2025-12-14T03:55:52.451034+00:00",
        "meta_object_name": "SAUDISAT 5A",
        "meta_object_id": "2018-102A",
        "meta_epoch": "2025-12-13T07:34:28.284960",
        "meta_mean_motion": 15.25670686,
        "meta_eccentricity": 0.00117368,
        "meta_inclination": 97.3355,
        "meta_ra_of_asc_node": 47.4955,
        "meta_arg_of_pericenter": 74.5889,
        "meta_mean_anomaly": 285.6645,
        "meta_ephemeris_type": 0,
        "meta_classification_type": "U",
        "meta_norad_cat_id": 43831,
        "meta_element_set_no": 999,
        "meta_rev_at_epoch": 38731,
        "meta_bstar": 0.00040914902,
        "meta_mean_motion_dot": 0.0001037,
        "meta_mean_motion_ddot": 0,
        "tle_line1": "1 43831U 18102A   25347.31560515  .00010370  00000+0  40915-3 0  9990",
        "tle_line2": "2 43831  97.3355  47.4955 0011736  74.5889 285.6645 15.25670686387310"
      },
      "geometry": {
        "type": "Point",
        "coordinates": [
          51.6324102208417,
          -24.109524085870095
        ]
      }
    },
    {
      "type": "Feature",
      "properties": {
        "norad_id": 43833,
        "name": "SAUDISAT 5B",
        "group": "resource",
        "lat": 29.504256942063282,
        "lon": 46.882523249125846,
        "alt_km": 480.1387258405566,
        "timestamp": "2025-12-14T03:55:52.451044+00:00",
        "meta_object_name": "SAUDISAT 5B",
        "meta_object_id": "2018-102C",
        "meta_epoch": "2025-12-13T07:20:34.791936",
        "meta_mean_motion": 15.26022426,
        "meta_eccentricity": 0.00124613,
        "meta_inclination": 97.345,
        "meta_ra_of_asc_node": 50.2255,
        "meta_arg_of_pericenter": 76.8356,
        "meta_mean_anomaly": 283.4272,
        "meta_ephemeris_type": 0,
        "meta_classification_type": "U",
        "meta_norad_cat_id": 43833,
        "meta_element_set_no": 999,
        "meta_rev_at_epoch": 38742,
        "meta_bstar": 0.0003744878,
        "meta_mean_motion_dot": 9.588e-05,
        "meta_mean_motion_ddot": 0,
        "tle_line1": "1 43833U 18102C   25347.30595824  .00009588  00000+0  37449-3 0  9999",
        "tle_line2": "2 43833  97.3450  50.2255 0012461  76.8356 283.4272 15.26022426387421"
      },
      "geometry": {
        "type": "Point",
        "coordinates": [
          46.882523249125846,
          29.504256942063282
        ]
      }
    },
    {
      "type": "Feature",
      "properties": {
        "norad_id": 44622,
        "name": "GAOFEN-10R",
        "group": "resource",
        "lat": 66.51532057714846,
        "lon": 134.6294425766623,
        "alt_km": 612.5344296910844,
        "timestamp": "2025-12-14T03:55:52.451054+00:00",
        "meta_object_name": "GAOFEN-10R",
        "meta_object_id": "2019-066A",
        "meta_epoch": "2025-12-13T07:59:36.871296",
        "meta_mean_motion": 14.82796879,
        "meta_eccentricity": 0.00078455,
        "meta_inclination": 98.0276,
        "meta_ra_of_asc_node": 294.8416,
        "meta_arg_of_pericenter": 40.3597,
        "meta_mean_anomaly": 319.8197,
        "meta_ephemeris_type": 0,
        "meta_classification_type": "U",
        "meta_norad_cat_id": 44622,
        "meta_element_set_no": 999,
        "meta_rev_at_epoch": 33483,
        "meta_bstar": 0.0003623882,
        "meta_mean_motion_dot": 2.878e-05,
        "meta_mean_motion_ddot": 0,
        "tle_line1": "1 44622U 19066A   25347.33306564  .00002878  00000+0  36239-3 0  9991",
        "tle_line2": "2 44622  98.0276 294.8416 0007845  40.3597 319.8197 14.82796879334838"
      },
      "geometry": {
        "type": "Point",
        "coordinates": [
          134.6294425766623,
          66.51532057714846
        ]
      }
    },
    {
      "type": "Feature",
      "properties": {
        "norad_id": 44804,
        "name": "CARTOSAT-3",
        "group": "resource",
        "lat": 76.26646160295793,
        "lon": -99.85651279859354,
        "alt_km": 492.1718831214448,
        "timestamp": "2025-12-14T03:55:52.451064+00:00",
        "meta_object_name": "CARTOSAT-3",
        "meta_object_id": "2019-081A",
        "meta_epoch": "2025-12-13T06:56:10.337856",
        "meta_mean_motion": 15.19160323,
        "meta_eccentricity": 0.00141652,
        "meta_inclination": 97.4584,
        "meta_ra_of_asc_node": 46.8653,
        "meta_arg_of_pericenter": 81.473,
        "meta_mean_anomaly": 278.8109,
        "meta_ephemeris_type": 0,
        "meta_classification_type": "U",
        "meta_norad_cat_id": 44804,
        "meta_element_set_no": 999,
        "meta_rev_at_epoch": 33524,
        "meta_bstar": 0.00033339041,
        "meta_mean_motion_dot": 6.959e-05,
        "meta_mean_motion_ddot": 0,
        "tle_line1": "1 44804U 19081A   25347.28900854  .00006959  00000+0  33339-3 0  9998",
        "tle_line2": "2 44804  97.4584  46.8653 0014165  81.4730 278.8109 15.19160323335244"
      },
      "geometry": {
        "type": "Point",
        "coordinates": [
          -99.85651279859354,
          76.26646160295793
        ]
      }
    },
    {
      "type": "Feature",
      "properties": {
        "norad_id": 44819,
        "name": "GAOFEN-12 01",
        "group": "resource",
        "lat": 7.881369935638238,
        "lon": -6.681587679079101,
        "alt_km": 629.9192144644549,
        "timestamp": "2025-12-14T03:55:52.451074+00:00",
        "meta_object_name": "GAOFEN-12 01",
        "meta_object_id": "2019-082A",
        "meta_epoch": "2025-12-13T06:48:38.958336",
        "meta_mean_motion": 14.80658221,
        "meta_eccentricity": 0.00013533,
        "meta_inclination": 97.8126,
        "meta_ra_of_asc_node": 353.5505,
        "meta_arg_of_pericenter": 229.9568,
        "meta_mean_anomaly": 130.1526,
        "meta_ephemeris_type": 0,
        "meta_classification_type": "U",
        "meta_norad_cat_id": 44819,
        "meta_element_set_no": 999,
        "meta_rev_at_epoch": 32658,
        "meta_bstar": 0.00010999339,
        "meta_mean_motion_dot": 7.94e-06,
        "meta_mean_motion_ddot": 0,
        "tle_line1": "1 44819U 19082A   25347.28378424  .00000794  00000+0  10999-3 0  9995",
        "tle_line2": "2 44819  97.8126 353.5505 0001353 229.9568 130.1526 14.80658221326589"
      },
      "geometry": {
        "type": "Point",
        "coordinates": [
          -6.681587679079101,
          7.881369935638238
        ]
      }
    }
  ]
}